[
  {
    "COMMENT": "GENERATED VIA SPACETRACK.ORG API",
    "ORIGINATOR": "18 SPCS",
    "NORAD_CAT_ID": "48621",
    "OBJECT_NAME": "HAIYANG 2D",
    "OBJECT_TYPE": "PAYLOAD",
    "CLASSIFICATION_TYPE": "U",
    "INTLDES": "21043A",
    "EPOCH": "2023-07-29 09:05:45",
    "EPOCH_MICROSECONDS": "152448",
    "MEAN_MOTION": "13.83372552",
    "ECCENTRICITY": "0.0007637",
    "INCLINATION": "65.9977",
    "RA_OF_ASC_NODE": "48.3177",
    "ARG_OF_PERICENTER": "262.7138",
    "MEAN_ANOMALY": "97.3062",
    "EPHEMERIS_TYPE": "0",
    "ELEMENT_SET_NO": "999",
    "REV_AT_EPOCH": "11082",
    "BSTAR": "0.000044298",
    "MEAN_MOTION_DOT": "-0.00000032",
    "MEAN_MOTION_DDOT": "0",
    "FILE": "3966342",
    "TLE_LINE0": "0 HAIYANG 2D",
    "TLE_LINE1": "1 48621U 21043A   23210.37899482 -.00000032  00000-0  44298-4 0  9996",
    "TLE_LINE2": "2 48621  65.9977  48.3177 0007637 262.7138  97.3062 13.83372552110826",
    "OBJECT_ID": "2021-043A",
    "OBJECT_NUMBER": "48621",
    "SEMIMAJOR_AXIS": "7330.086",
    "PERIOD": "104.093",
    "APOGEE": "957.549",
    "PERIGEE": "946.353",
    "DECAYED": "0"
  },
  {
    "COMMENT": "GENERATED VIA SPACETRACK.ORG API",
    "ORIGINATOR": "18 SPCS",
    "NORAD_CAT_ID": "48621",
    "OBJECT_NAME": "HAIYANG 2D",
    "OBJECT_TYPE": "PAYLOAD",
    "CLASSIFICATION_TYPE": "U",
    "INTLDES": "21043A",
    "EPOCH": "2023-07-29 19:30:22",
    "EPOCH_MICROSECONDS": "797504",
    "MEAN_MOTION": "13.83372636",
    "ECCENTRICITY": "0.0007632",
    "INCLINATION": "65.9977",
    "RA_OF_ASC_NODE": "47.2377",
    "ARG_OF_PERICENTER": "262.78",
    "MEAN_ANOMALY": "97.2401",
    "EPHEMERIS_TYPE": "0",
    "ELEMENT_SET_NO": "999",
    "REV_AT_EPOCH": "11088",
    "BSTAR": "0.000060442",
    "MEAN_MOTION_DOT": "-0.00000015",
    "MEAN_MOTION_DDOT": "0",
    "FILE": "3966664",
    "TLE_LINE0": "0 HAIYANG 2D",
    "TLE_LINE1": "1 48621U 21043A   23210.81276386 -.00000015  00000-0  60442-4 0  9997",
    "TLE_LINE2": "2 48621  65.9977  47.2377 0007632 262.7800  97.2401 13.83372636110882",
    "OBJECT_ID": "2021-043A",
    "OBJECT_NUMBER": "48621",
    "SEMIMAJOR_AXIS": "7330.086",
    "PERIOD": "104.093",
    "APOGEE": "957.545",
    "PERIGEE": "946.356",
    "DECAYED": "0"
  },
  {
    "COMMENT": "GENERATED VIA SPACETRACK.ORG API",
    "ORIGINATOR": "18 SPCS",
    "NORAD_CAT_ID": "48621",
    "OBJECT_NAME": "HAIYANG 2D",
    "OBJECT_TYPE": "PAYLOAD",
    "CLASSIFICATION_TYPE": "U",
    "INTLDES": "21043A",
    "EPOCH": "2023-07-30 02:26:47",
    "EPOCH_MICROSECONDS": "893344",
    "MEAN_MOTION": "13.83372678",
    "ECCENTRICITY": "0.0007627",
    "INCLINATION": "65.9977",
    "RA_OF_ASC_NODE": "46.5177",
    "ARG_OF_PERICENTER": "262.8165",
    "MEAN_ANOMALY": "97.2036",
    "EPHEMERIS_TYPE": "0",
    "ELEMENT_SET_NO": "999",
    "REV_AT_EPOCH": "11092",
    "BSTAR": "0.000059121",
    "MEAN_MOTION_DOT": "-0.00000016",
    "MEAN_MOTION_DDOT": "0",
    "FILE": "3966900",
    "TLE_LINE0": "0 HAIYANG 2D",
    "TLE_LINE1": "1 48621U 21043A   23211.10194321 -.00000016  00000-0  59121-4 0  9991",
    "TLE_LINE2": "2 48621  65.9977  46.5177 0007627 262.8165  97.2036 13.83372678110926",
    "OBJECT_ID": "2021-043A",
    "OBJECT_NUMBER": "48621",
    "SEMIMAJOR_AXIS": "7330.086",
    "PERIOD": "104.093",
    "APOGEE": "957.541",
    "PERIGEE": "946.360",
    "DECAYED": "0"
  },
  {
    "COMMENT": "GENERATED VIA SPACETRACK.ORG API",
    "ORIGINATOR": "18 SPCS",
    "NORAD_CAT_ID": "48621",
    "OBJECT_NAME": "HAIYANG 2D",
    "OBJECT_TYPE": "PAYLOAD",
    "CLASSIFICATION_TYPE": "U",
    "INTLDES": "21043A",
    "EPOCH": "2023-07-30 09:23:12",
    "EPOCH_MICROSECONDS": "991776",
    "MEAN_MOTION": "13.83372684",
    "ECCENTRICITY": "0.0007623",
    "INCLINATION": "65.9977",
    "RA_OF_ASC_NODE": "45.7978",
    "ARG_OF_PERICENTER": "262.8272",
    "MEAN_ANOMALY": "97.193",
    "EPHEMERIS_TYPE": "0",
    "ELEMENT_SET_NO": "999",
    "REV_AT_EPOCH": "11096",
    "BSTAR": "0.000054174",
    "MEAN_MOTION_DOT": "-0.00000022",
    "MEAN_MOTION_DDOT": "0",
    "FILE": "3967194",
    "TLE_LINE0": "0 HAIYANG 2D",
    "TLE_LINE1": "1 48621U 21043A   23211.39112259 -.00000022  00000-0  54174-4 0  9992",
    "TLE_LINE2": "2 48621  65.9977  45.7978 0007623 262.8272  97.1930 13.83372684110964",
    "OBJECT_ID": "2021-043A",
    "OBJECT_NUMBER": "48621",
    "SEMIMAJOR_AXIS": "7330.086",
    "PERIOD": "104.093",
    "APOGEE": "957.538",
    "PERIGEE": "946.363",
    "DECAYED": "0"
  },
  {
    "COMMENT": "GENERATED VIA SPACETRACK.ORG API",
    "ORIGINATOR": "18 SPCS",
    "NORAD_CAT_ID": "48621",
    "OBJECT_NAME": "HAIYANG 2D",
    "OBJECT_TYPE": "PAYLOAD",
    "CLASSIFICATION_TYPE": "U",
    "INTLDES": "21043A",
    "EPOCH": "2023-07-30 18:03:44",
    "EPOCH_MICROSECONDS": "355744",
    "MEAN_MOTION": "13.83372743",
    "ECCENTRICITY": "0.0007623",
    "INCLINATION": "65.9977",
    "RA_OF_ASC_NODE": "44.8977",
    "ARG_OF_PERICENTER": "262.793",
    "MEAN_ANOMALY": "97.2272",
    "EPHEMERIS_TYPE": "0",
    "ELEMENT_SET_NO": "999",
    "REV_AT_EPOCH": "11101",
    "BSTAR": "0.000057788",
    "MEAN_MOTION_DOT": "-0.00000018",
    "MEAN_MOTION_DDOT": "0",
    "FILE": "3967465",
    "TLE_LINE0": "0 HAIYANG 2D",
    "TLE_LINE1": "1 48621U 21043A   23211.75259671 -.00000018  00000-0  57788-4 0  9991",
    "TLE_LINE2": "2 48621  65.9977  44.8977 0007623 262.7930  97.2272 13.83372743111016",
    "OBJECT_ID": "2021-043A",
    "OBJECT_NUMBER": "48621",
    "SEMIMAJOR_AXIS": "7330.085",
    "PERIOD": "104.093",
    "APOGEE": "957.538",
    "PERIGEE": "946.363",
    "DECAYED": "0"
  },
  {
    "COMMENT": "GENERATED VIA SPACETRACK.ORG API",
    "ORIGINATOR": "18 SPCS",
    "NORAD_CAT_ID": "48621",
    "OBJECT_NAME": "HAIYANG 2D",
    "OBJECT_TYPE": "PAYLOAD",
    "CLASSIFICATION_TYPE": "U",
    "INTLDES": "21043A",
    "EPOCH": "2023-07-31 01:00:09",
    "EPOCH_MICROSECONDS": "451584",
    "MEAN_MOTION": "13.83372766",
    "ECCENTRICITY": "0.0007616",
    "INCLINATION": "65.9977",
    "RA_OF_ASC_NODE": "44.1777",
    "ARG_OF_PERICENTER": "262.8667",
    "MEAN_ANOMALY": "97.1535",
    "EPHEMERIS_TYPE": "0",
    "ELEMENT_SET_NO": "999",
    "REV_AT_EPOCH": "11105",
    "BSTAR": "0.000056252",
    "MEAN_MOTION_DOT": "-0.00000019",
    "MEAN_MOTION_DDOT": "0",
    "FILE": "3967750",
    "TLE_LINE0": "0 HAIYANG 2D",
    "TLE_LINE1": "1 48621U 21043A   23212.04177606 -.00000019  00000-0  56252-4 0  9997",
    "TLE_LINE2": "2 48621  65.9977  44.1777 0007616 262.8667  97.1535 13.83372766111057",
    "OBJECT_ID": "2021-043A",
    "OBJECT_NUMBER": "48621",
    "SEMIMAJOR_AXIS": "7330.085",
    "PERIOD": "104.093",
    "APOGEE": "957.533",
    "PERIGEE": "946.368",
    "DECAYED": "0"
  },
  {
    "COMMENT": "GENERATED VIA SPACETRACK.ORG API",
    "ORIGINATOR": "18 SPCS",
    "NORAD_CAT_ID": "48621",
    "OBJECT_NAME": "HAIYANG 2D",
    "OBJECT_TYPE": "PAYLOAD",
    "CLASSIFICATION_TYPE": "U",
    "INTLDES": "21043A",
    "EPOCH": "2023-07-31 09:40:40",
    "EPOCH_MICROSECONDS": "816416",
    "MEAN_MOTION": "13.83372829",
    "ECCENTRICITY": "0.0007613",
    "INCLINATION": "65.9978",
    "RA_OF_ASC_NODE": "43.2778",
    "ARG_OF_PERICENTER": "262.8654",
    "MEAN_ANOMALY": "97.1548",
    "EPHEMERIS_TYPE": "0",
    "ELEMENT_SET_NO": "999",
    "REV_AT_EPOCH": "11110",
    "BSTAR": "0.000054236",
    "MEAN_MOTION_DOT": "-0.00000022",
    "MEAN_MOTION_DDOT": "0",
    "FILE": "3968043",
    "TLE_LINE0": "0 HAIYANG 2D",
    "TLE_LINE1": "1 48621U 21043A   23212.40325019 -.00000022  00000-0  54236-4 0  9994",
    "TLE_LINE2": "2 48621  65.9978  43.2778 0007613 262.8654  97.1548 13.83372829111102",
    "OBJECT_ID": "2021-043A",
    "OBJECT_NUMBER": "48621",
    "SEMIMAJOR_AXIS": "7330.085",
    "PERIOD": "104.093",
    "APOGEE": "957.530",
    "PERIGEE": "946.370",
    "DECAYED": "0"
  },
  {
    "COMMENT": "GENERATED VIA SPACETRACK.ORG API",
    "ORIGINATOR": "18 SPCS",
    "NORAD_CAT_ID": "48621",
    "OBJECT_NAME": "HAIYANG 2D",
    "OBJECT_TYPE": "PAYLOAD",
    "CLASSIFICATION_TYPE": "U",
    "INTLDES": "21043A",
    "EPOCH": "2023-07-31 18:21:12",
    "EPOCH_MICROSECONDS": "178656",
    "MEAN_MOTION": "13.83372872",
    "ECCENTRICITY": "0.0007613",
    "INCLINATION": "65.9978",
    "RA_OF_ASC_NODE": "42.3778",
    "ARG_OF_PERICENTER": "262.8592",
    "MEAN_ANOMALY": "97.161",
    "EPHEMERIS_TYPE": "0",
    "ELEMENT_SET_NO": "999",
    "REV_AT_EPOCH": "11115",
    "BSTAR": "0.000052346",
    "MEAN_MOTION_DOT": "-0.00000024",
    "MEAN_MOTION_DDOT": "0",
    "FILE": "3968372",
    "TLE_LINE0": "0 HAIYANG 2D",
    "TLE_LINE1": "1 48621U 21043A   23212.76472429 -.00000024  00000-0  52346-4 0  9993",
    "TLE_LINE2": "2 48621  65.9978  42.3778 0007613 262.8592  97.1610 13.83372872111156",
    "OBJECT_ID": "2021-043A",
    "OBJECT_NUMBER": "48621",
    "SEMIMAJOR_AXIS": "7330.085",
    "PERIOD": "104.093",
    "APOGEE": "957.530",
    "PERIGEE": "946.370",
    "DECAYED": "0"
  }
]